{"type": "FeatureCollection", "features": [ {"type": "Feature", "properties": {"norad_id": 66896, "name": "STARLINK-35791", "group": "last-30-days", "lat": 36.95313000338819, "lon": -160.77673834301598, "alt_km": 299.98208823575897, "timestamp": "2025-12-16T17:51:09.662727+00:00", "meta": {"OBJECT_NAME": "STARLINK-35791", "OBJECT_ID": "2025-283U", "EPOCH": "2025-12-15T21:40:28.244352", "MEAN_MOTION": 15.88160125, "ECCENTRICITY": 6.323e-05, "INCLINATION": 53.1548, "RA_OF_ASC_NODE": 57.8278, "ARG_OF_PERICENTER": 66.3203, "MEAN_ANOMALY": 293.7889, "EPHEMERIS_TYPE": 0, "CLASSIFICATION_TYPE": "U", "NORAD_CAT_ID": 66896, "ELEMENT_SET_NO": 999, "REV_AT_EPOCH": 295, "BSTAR": 0.0018744142, "MEAN_MOTION_DOT": 0.00558044, "MEAN_MOTION_DDOT": 0}, "tle": {"line1": "1 66896U 25283U   25349.90310468  .00558044  00000+0  18744-2 0  9990", "line2": "2 66896  53.1548  57.8278 0000632  66.3203 293.7889 15.88160125  2950"}}, "geometry": {"type": "Point", "coordinates": [-160.77673834301598, 36.95313000338819]}}, {"type": "Feature", "properties": {"norad_id": 66897, "name": "STARLINK-36079", "group": "last-30-days", "lat": 36.13635868368591, "lon": -159.63762809221092, "alt_km": 305.9807363809314, "timestamp": "2025-12-16T17:51:09.662747+00:00", "meta": {"OBJECT_NAME": "STARLINK-36079", "OBJECT_ID": "2025-283V", "EPOCH": "2025-12-15T12:35:20.716512", "MEAN_MOTION": 15.88122133, "ECCENTRICITY": 8.861e-05, "INCLINATION": 53.1551, "RA_OF_ASC_NODE": 59.7341, "ARG_OF_PERICENTER": 99.0804, "MEAN_ANOMALY": 261.0323, "EPHEMERIS_TYPE": 0, "CLASSIFICATION_TYPE": "U", "NORAD_CAT_ID": 66897, "ELEMENT_SET_NO": 999, "REV_AT_EPOCH": 289, "BSTAR": -0.001973272, "MEAN_MOTION_DOT": -0.0052087, "MEAN_MOTION_DDOT": 0}, "tle": {"line1": "1 66897U 25283V   25349.52454533 -.00520870  00000+0 -19733-2 0  9998", "line2": "2 66897  53.1551  59.7341 0000886  99.0804 261.0323 15.88122133  2899"}}, "geometry": {"type": "Point", "coordinates": [-159.63762809221092, 36.13635868368591]}}, {"type": "Feature", "properties": {"norad_id": 66898, "name": "STARLINK-36065", "group": "last-30-days", "lat": 31.847688517397593, "lon": -154.21473787158237, "alt_km": 301.7155182633687, "timestamp": "2025-12-16T17:51:09.662757+00:00", "meta": {"OBJECT_NAME": "STARLINK-36065", "OBJECT_ID": "2025-283W", "EPOCH": "2025-12-15T21:38:28.283136", "MEAN_MOTION": 15.88005808, "ECCENTRICITY": 0.00017923, "INCLINATION": 53.1543, "RA_OF_ASC_NODE": 57.8182, "ARG_OF_PERICENTER": 40.4617, "MEAN_ANOMALY": 319.6542, "EPHEMERIS_TYPE": 0, "CLASSIFICATION_TYPE": "U", "NORAD_CAT_ID": 66898, "ELEMENT_SET_NO": 999, "REV_AT_EPOCH": 295, "BSTAR": 0.0018047647, "MEAN_MOTION_DOT": 0.00531493, "MEAN_MOTION_DDOT": 0}, "tle": {"line1": "1 66898U 25283W   25349.90171624  .00531493  00000+0  18048-2 0  9997", "line2": "2 66898  53.1543  57.8182 0001792  40.4617 319.6542 15.88005808  2951"}}, "geometry": {"type": "Point", "coordinates": [-154.21473787158237, 31.847688517397593]}}, {"type": "Feature", "properties": {"norad_id": 66899, "name": "STARLINK-36064", "group": "last-30-days", "lat": 29.040812702221295, "lon": -151.0655462077752, "alt_km": 300.8444532645244, "timestamp": "2025-12-16T17:51:09.662941+00:00", "meta": {"OBJECT_NAME": "STARLINK-36064", "OBJECT_ID": "2025-283X", "EPOCH": "2025-12-15T21:37:43.524480", "MEAN_MOTION": 15.88255312, "ECCENTRICITY": 8.645e-05, "INCLINATION": 53.1543, "RA_OF_ASC_NODE": 57.8145, "ARG_OF_PERICENTER": 55.5047, "MEAN_ANOMALY": 304.606, "EPHEMERIS_TYPE": 0, "CLASSIFICATION_TYPE": "U", "NORAD_CAT_ID": 66899, "ELEMENT_SET_NO": 999, "REV_AT_EPOCH": 295, "BSTAR": 0.0020490171, "MEAN_MOTION_DOT": 0.00617133, "MEAN_MOTION_DDOT": 0}, "tle": {"line1": "1 66899U 25283X   25349.90119820  .00617133  00000+0  20490-2 0  9998", "line2": "2 66899  53.1543  57.8145 0000864  55.5047 304.6060 15.88255312  2950"}}, "geometry": {"type": "Point", "coordinates": [-151.0655462077752, 29.040812702221295]}}, {"type": "Feature", "properties": {"norad_id": 66900, "name": "STARLINK-36074", "group": "last-30-days", "lat": 27.11077595734337, "lon": -149.04169516651078, "alt_km": 301.4122034553111, "timestamp": "2025-12-16T17:51:09.662953+00:00", "meta": {"OBJECT_NAME": "STARLINK-36074", "OBJECT_ID": "2025-283Y", "EPOCH": "2025-12-15T21:37:01.756992", "MEAN_MOTION": 15.88236866, "ECCENTRICITY": 8.782e-05, "INCLINATION": 53.1545, "RA_OF_ASC_NODE": 57.8112, "ARG_OF_PERICENTER": 52.2538, "MEAN_ANOMALY": 307.8567, "EPHEMERIS_TYPE": 0, "CLASSIFICATION_TYPE": "U", "NORAD_CAT_ID": 66900, "ELEMENT_SET_NO": 999, "REV_AT_EPOCH": 295, "BSTAR": 0.0019410025, "MEAN_MOTION_DOT": 0.00581649, "MEAN_MOTION_DDOT": 0}, "tle": {"line1": "1 66900U 25283Y   25349.90071478  .00581649  00000+0  19410-2 0  9999", "line2": "2 66900  53.1545  57.8112 0000878  52.2538 307.8567 15.88236866  2953"}}, "geometry": {"type": "Point", "coordinates": [-149.04169516651078, 27.11077595734337]}}, {"type": "Feature", "properties": {"norad_id": 66901, "name": "STARLINK-36043", "group": "last-30-days", "lat": 26.180562241843866, "lon": -148.10109104778164, "alt_km": 303.0232245762563, "timestamp": "2025-12-16T17:51:09.662963+00:00", "meta": {"OBJECT_NAME": "STARLINK-36043", "OBJECT_ID": "2025-283Z", "EPOCH": "2025-12-15T21:36:28.911168", "MEAN_MOTION": 15.88013131, "ECCENTRICITY": 0.00022977, "INCLINATION": 53.1547, "RA_OF_ASC_NODE": 57.8091, "ARG_OF_PERICENTER": 43.9266, "MEAN_ANOMALY": 316.1942, "EPHEMERIS_TYPE": 0, "CLASSIFICATION_TYPE": "U", "NORAD_CAT_ID": 66901, "ELEMENT_SET_NO": 999, "REV_AT_EPOCH": 295, "BSTAR": 0.0015970867, "MEAN_MOTION_DOT": 0.00466949, "MEAN_MOTION_DDOT": 0}, "tle": {"line1": "1 66901U 25283Z   25349.90033462  .00466949  00000+0  15971-2 0  9994", "line2": "2 66901  53.1547  57.8091 0002297  43.9266 316.1942 15.88013131  2952"}}, "geometry": {"type": "Point", "coordinates": [-148.10109104778164, 26.180562241843866]}}, {"type": "Feature", "properties": {"norad_id": 66902, "name": "STARLINK-35983", "group": "last-30-days", "lat": 23.884700183187455, "lon": -145.86801119676488, "alt_km": 303.1636584310827, "timestamp": "2025-12-16T17:51:09.662976+00:00", "meta": {"OBJECT_NAME": "STARLINK-35983", "OBJECT_ID": "2025-283AA", "EPOCH": "2025-12-15T21:35:43.663488", "MEAN_MOTION": 15.88034102, "ECCENTRICITY": 5.901e-05, "INCLINATION": 53.1546, "RA_OF_ASC_NODE": 57.8054, "ARG_OF_PERICENTER": 15.4261, "MEAN_ANOMALY": 344.6782, "EPHEMERIS_TYPE": 0, "CLASSIFICATION_TYPE": "U", "NORAD_CAT_ID": 66902, "ELEMENT_SET_NO": 999, "REV_AT_EPOCH": 295, "BSTAR": 0.001645144, "MEAN_MOTION_DOT": 0.00482438, "MEAN_MOTION_DDOT": 0}, "tle": {"line1": "1 66902U 25283AA  25349.89981092  .00482438  00000+0  16451-2 0  9999", "line2": "2 66902  53.1546  57.8054 0000590  15.4261 344.6782 15.88034102  2953"}}, "geometry": {"type": "Point", "coordinates": [-145.86801119676488, 23.884700183187455]}}, {"type": "Feature", "properties": {"norad_id": 66903, "name": "STARLINK-36077", "group": "last-30-days", "lat": 22.100417990915037, "lon": -144.2066409119339, "alt_km": 303.7957585876011, "timestamp": "2025-12-16T17:51:09.662986+00:00", "meta": {"OBJECT_NAME": "STARLINK-36077", "OBJECT_ID": "2025-283AB", "EPOCH": "2025-12-15T21:35:07.531008", "MEAN_MOTION": 15.88036047, "ECCENTRICITY": 0.00019766, "INCLINATION": 53.1549, "RA_OF_ASC_NODE": 57.8027, "ARG_OF_PERICENTER": 42.8364, "MEAN_ANOMALY": 317.2816, "EPHEMERIS_TYPE": 0, "CLASSIFICATION_TYPE": "U", "NORAD_CAT_ID": 66903, "ELEMENT_SET_NO": 999, "REV_AT_EPOCH": 295, "BSTAR": 0.001538359, "MEAN_MOTION_DOT": 0.00449358, "MEAN_MOTION_DDOT": 0}, "tle": {"line1": "1 66903U 25283AB  25349.89939272  .00449358  00000+0  15384-2 0  9991", "line2": "2 66903  53.1549  57.8027 0001976  42.8364 317.2816 15.88036047  2958"}}, "geometry": {"type": "Point", "coordinates": [-144.2066409119339, 22.100417990915037]}}, {"type": "Feature", "properties": {"norad_id": 66904, "name": "STARLINK-36059", "group": "last-30-days", "lat": 23.997697978114903, "lon": -145.97533582431672, "alt_km": 309.31021212267933, "timestamp": "2025-12-16T17:51:09.662996+00:00", "meta": {"OBJECT_NAME": "STARLINK-36059", "OBJECT_ID": "2025-283AC", "EPOCH": "2025-12-15T21:34:40.021248", "MEAN_MOTION": 15.8720969, "ECCENTRICITY": 0.00019779, "INCLINATION": 53.1545, "RA_OF_ASC_NODE": 57.8004, "ARG_OF_PERICENTER": 27.1943, "MEAN_ANOMALY": 332.9185, "EPHEMERIS_TYPE": 0, "CLASSIFICATION_TYPE": "U", "NORAD_CAT_ID": 66904, "ELEMENT_SET_NO": 999, "REV_AT_EPOCH": 295, "BSTAR": -0.0010065488, "MEAN_MOTION_DOT": -0.00261771, "MEAN_MOTION_DDOT": 0}, "tle": {"line1": "1 66904U 25283AC  25349.89907432 -.00261771  00000+0 -10065-2 0  9999", "line2": "2 66904  53.1545  57.8004 0001977  27.1943 332.9185 15.87209690  2958"}}, "geometry": {"type": "Point", "coordinates": [-145.97533582431672, 23.997697978114903]}}, {"type": "Feature", "properties": {"norad_id": 66905, "name": "STARLINK-36075", "group": "last-30-days", "lat": 22.433271370979316, "lon": -144.51234900912624, "alt_km": 310.03395558215834, "timestamp": "2025-12-16T17:51:09.663007+00:00", "meta": {"OBJECT_NAME": "STARLINK-36075", "OBJECT_ID": "2025-283AD", "EPOCH": "2025-12-15T21:34:05.850912", "MEAN_MOTION": 15.87207366, "ECCENTRICITY": 0.00014569, "INCLINATION": 53.1547, "RA_OF_ASC_NODE": 57.7977, "ARG_OF_PERICENTER": 4.3082, "MEAN_ANOMALY": 355.7956, "EPHEMERIS_TYPE": 0, "CLASSIFICATION_TYPE": "U", "NORAD_CAT_ID": 66905, "ELEMENT_SET_NO": 999, "REV_AT_EPOCH": 295, "BSTAR": -0.0012604115, "MEAN_MOTION_DOT": -0.00325216, "MEAN_MOTION_DDOT": 0}, "tle": {"line1": "1 66905U 25283AD  25349.89867883 -.00325216  00000+0 -12604-2 0  9991", "line2": "2 66905  53.1547  57.7977 0001456   4.3082 355.7956 15.87207366  2959"}}, "geometry": {"type": "Point", "coordinates": [-144.51234900912624, 22.433271370979316]}}]}